{
  "type": "FeatureCollection",
  "features": [
    {
      "type": "Feature",
      "properties": {
        "norad_id": 67095,
        "name": "STARLINK-36227",
        "group": "last-30-days",
        "lat": -45.35079138978969,
        "lon": -165.45946446014196,
        "alt_km": 326.2586032884619,
        "timestamp": "2025-12-24T14:43:27.724260+00:00",
        "meta_object_name": "STARLINK-36227",
        "meta_object_id": "2025-298W",
        "meta_epoch": "2025-12-24T06:00:02.000160",
        "meta_mean_motion": 15.84427695,
        "meta_eccentricity": 0.00038323,
        "meta_inclination": 69.9954,
        "meta_ra_of_asc_node": 217.2259,
        "meta_arg_of_pericenter": 274.909,
        "meta_mean_anomaly": 124.1719,
        "meta_ephemeris_type": 0,
        "meta_classification_type": "U",
        "meta_norad_cat_id": 67095,
        "meta_element_set_no": 999,
        "meta_rev_at_epoch": 276,
        "meta_bstar": -0.0088271026,
        "meta_mean_motion_dot": -0.01748029,
        "meta_mean_motion_ddot": 0,
        "tle_line1": "1 67095U 25298W   25358.25002315 -.01748029  00000+0 -88271-2 0  9994",
        "tle_line2": "2 67095  69.9954 217.2259 0003832 274.9090 124.1719 15.84427695  2767"
      },
      "geometry": {
        "type": "Point",
        "coordinates": [
          -165.45946446014196,
          -45.35079138978969
        ]
      }
    },
    {
      "type": "Feature",
      "properties": {
        "norad_id": 67096,
        "name": "STARLINK-36228",
        "group": "last-30-days",
        "lat": -43.77032715029626,
        "lon": -164.24560469811536,
        "alt_km": 326.2070346184619,
        "timestamp": "2025-12-24T14:43:27.724281+00:00",
        "meta_object_name": "STARLINK-36228",
        "meta_object_id": "2025-298X",
        "meta_epoch": "2025-12-24T06:00:02.000160",
        "meta_mean_motion": 15.84430881,
        "meta_eccentricity": 0.00039079,
        "meta_inclination": 69.9956,
        "meta_ra_of_asc_node": 217.224,
        "meta_arg_of_pericenter": 274.4459,
        "meta_mean_anomaly": 126.433,
        "meta_ephemeris_type": 0,
        "meta_classification_type": "U",
        "meta_norad_cat_id": 67096,
        "meta_element_set_no": 999,
        "meta_rev_at_epoch": 276,
        "meta_bstar": -0.0088154846,
        "meta_mean_motion_dot": -0.01746378,
        "meta_mean_motion_ddot": 0,
        "tle_line1": "1 67096U 25298X   25358.25002315 -.01746378  00000+0 -88155-2 0  9991",
        "tle_line2": "2 67096  69.9956 217.2240 0003907 274.4459 126.4330 15.84430881  2762"
      },
      "geometry": {
        "type": "Point",
        "coordinates": [
          -164.24560469811536,
          -43.77032715029626
        ]
      }
    },
    {
      "type": "Feature",
      "properties": {
        "norad_id": 67097,
        "name": "STARLINK-36222",
        "group": "last-30-days",
        "lat": -41.99939900194995,
        "lon": -162.97076475834407,
        "alt_km": 326.14418294695315,
        "timestamp": "2025-12-24T14:43:27.724293+00:00",
        "meta_object_name": "STARLINK-36222",
        "meta_object_id": "2025-298Y",
        "meta_epoch": "2025-12-24T06:00:02.000160",
        "meta_mean_motion": 15.84428637,
        "meta_eccentricity": 0.00039293,
        "meta_inclination": 69.9955,
        "meta_ra_of_asc_node": 217.2214,
        "meta_arg_of_pericenter": 276.0816,
        "meta_mean_anomaly": 126.8072,
        "meta_ephemeris_type": 0,
        "meta_classification_type": "U",
        "meta_norad_cat_id": 67097,
        "meta_element_set_no": 999,
        "meta_rev_at_epoch": 276,
        "meta_bstar": -0.0088278619,
        "meta_mean_motion_dot": -0.01748354,
        "meta_mean_motion_ddot": 0,
        "tle_line1": "1 67097U 25298Y   25358.25002315 -.01748354  00000+0 -88279-2 0  9995",
        "tle_line2": "2 67097  69.9955 217.2214 0003929 276.0816 126.8072 15.84428637  2765"
      },
      "geometry": {
        "type": "Point",
        "coordinates": [
          -162.97076475834407,
          -41.99939900194995
        ]
      }
    },
    {
      "type": "Feature",
      "properties": {
        "norad_id": 67098,
        "name": "STARLINK-36205",
        "group": "last-30-days",
        "lat": -40.063261961849925,
        "lon": -161.66580581394462,
        "alt_km": 326.181796428662,
        "timestamp": "2025-12-24T14:43:27.724306+00:00",
        "meta_object_name": "STARLINK-36205",
        "meta_object_id": "2025-298Z",
        "meta_epoch": "2025-12-24T06:00:02.000160",
        "meta_mean_motion": 15.84418907,
        "meta_eccentricity": 0.00038605,
        "meta_inclination": 69.9954,
        "meta_ra_of_asc_node": 217.2189,
        "meta_arg_of_pericenter": 276.075,
        "meta_mean_anomaly": 129.0006,
        "meta_ephemeris_type": 0,
        "meta_classification_type": "U",
        "meta_norad_cat_id": 67098,
        "meta_element_set_no": 999,
        "meta_rev_at_epoch": 282,
        "meta_bstar": -0.0088209069,
        "meta_mean_motion_dot": -0.01746372,
        "meta_mean_motion_ddot": 0,
        "tle_line1": "1 67098U 25298Z   25358.25002315 -.01746372  00000+0 -88209-2 0  9997",
        "tle_line2": "2 67098  69.9954 217.2189 0003860 276.0750 129.0006 15.84418907  2825"
      },
      "geometry": {
        "type": "Point",
        "coordinates": [
          -161.66580581394462,
          -40.063261961849925
        ]
      }
    },
    {
      "type": "Feature",
      "properties": {
        "norad_id": 67099,
        "name": "STARLINK-36193",
        "group": "last-30-days",
        "lat": -37.5268448939618,
        "lon": -160.07706055555624,
        "alt_km": 328.40308862226993,
        "timestamp": "2025-12-24T14:43:27.724316+00:00",
        "meta_object_name": "STARLINK-36193",
        "meta_object_id": "2025-298AA",
        "meta_epoch": "2025-12-24T06:00:02.000160",
        "meta_mean_motion": 15.84207344,
        "meta_eccentricity": 0.00037842,
        "meta_inclination": 69.9954,
        "meta_ra_of_asc_node": 217.2149,
        "meta_arg_of_pericenter": 273.9987,
        "meta_mean_anomaly": 134.5327,
        "meta_ephemeris_type": 0,
        "meta_classification_type": "U",
        "meta_norad_cat_id": 67099,
        "meta_element_set_no": 999,
        "meta_rev_at_epoch": 276,
        "meta_bstar": -0.012374543,
        "meta_mean_motion_dot": -0.02423814,
        "meta_mean_motion_ddot": 0,
        "tle_line1": "1 67099U 25298AA  25358.25002315 -.02423814  00000+0 -12375-1 0  9992",
        "tle_line2": "2 67099  69.9954 217.2149 0003784 273.9987 134.5327 15.84207344  2766"
      },
      "geometry": {
        "type": "Point",
        "coordinates": [
          -160.07706055555624,
          -37.5268448939618
        ]
      }
    },
    {
      "type": "Feature",
      "properties": {
        "norad_id": 67100,
        "name": "STARLINK-36215",
        "group": "last-30-days",
        "lat": -35.15913615762523,
        "lon": -158.69984361790316,
        "alt_km": 326.09312001908165,
        "timestamp": "2025-12-24T14:43:27.724325+00:00",
        "meta_object_name": "STARLINK-36215",
        "meta_object_id": "2025-298AB",
        "meta_epoch": "2025-12-24T06:00:02.000160",
        "meta_mean_motion": 15.84429799,
        "meta_eccentricity": 0.00039286,
        "meta_inclination": 69.9953,
        "meta_ra_of_asc_node": 217.2123,
        "meta_arg_of_pericenter": 274.7727,
        "meta_mean_anomaly": 135.7321,
        "meta_ephemeris_type": 0,
        "meta_classification_type": "U",
        "meta_norad_cat_id": 67100,
        "meta_element_set_no": 999,
        "meta_rev_at_epoch": 282,
        "meta_bstar": -0.0088275443,
        "meta_mean_motion_dot": -0.01748383,
        "meta_mean_motion_ddot": 0,
        "tle_line1": "1 67100U 25298AB  25358.25002315 -.01748383  00000+0 -88275-2 0  9998",
        "tle_line2": "2 67100  69.9953 217.2123 0003928 274.7727 135.7321 15.84429799  2825"
      },
      "geometry": {
        "type": "Point",
        "coordinates": [
          -158.69984361790316,
          -35.15913615762523
        ]
      }
    },
    {
      "type": "Feature",
      "properties": {
        "norad_id": 67101,
        "name": "STARLINK-36200",
        "group": "last-30-days",
        "lat": -38.489028525104885,
        "lon": -160.66432445561264,
        "alt_km": 326.27940021395807,
        "timestamp": "2025-12-24T14:43:27.724337+00:00",
        "meta_object_name": "STARLINK-36200",
        "meta_object_id": "2025-298AC",
        "meta_epoch": "2025-12-24T06:00:02.000160",
        "meta_mean_motion": 15.84424885,
        "meta_eccentricity": 0.00038565,
        "meta_inclination": 69.9957,
        "meta_ra_of_asc_node": 217.2172,
        "meta_arg_of_pericenter": 272.2112,
        "meta_mean_anomaly": 134.6127,
        "meta_ephemeris_type": 0,
        "meta_classification_type": "U",
        "meta_norad_cat_id": 67101,
        "meta_element_set_no": 999,
        "meta_rev_at_epoch": 282,
        "meta_bstar": -0.0088324755,
        "meta_mean_motion_dot": -0.01748772,
        "meta_mean_motion_ddot": 0,
        "tle_line1": "1 67101U 25298AC  25358.25002315 -.01748772  00000+0 -88325-2 0  9997",
        "tle_line2": "2 67101  69.9957 217.2172 0003856 272.2112 134.6127 15.84424885  2828"
      },
      "geometry": {
        "type": "Point",
        "coordinates": [
          -160.66432445561264,
          -38.489028525104885
        ]
      }
    }
  ]
}